[{"OBJECT_NAME":"STARLINK-36148","OBJECT_ID":"2025-293C","EPOCH":"2026-03-09T11:28:19.264800","MEAN_MOTION":14.9828441,"ECCENTRICITY":0.00029224,"INCLINATION":70.0007,"RA_OF_ASC_NODE":95.0917,"ARG_OF_PERICENTER":268.3794,"MEAN_ANOMALY":91.703,"EPHEMERIS_TYPE":0,"CLASSIFICATION_TYPE":"U","NORAD_CAT_ID":67005,"ELEMENT_SET_NO":999,"REV_AT_EPOCH":1485,"BSTAR":-0.00086095425,"MEAN_MOTION_DOT":-0.00010338,"MEAN_MOTION_DDOT":0},{"OBJECT_NAME":"SEDSAT 1 (SO-33)","OBJECT_ID":"1998-061B","EPOCH":"2026-03-09T01:12:01.146528","MEAN_MOTION":14.33274004,"ECCENTRICITY":0.03368459,"INCLINATION":31.4338,"RA_OF_ASC_NODE":325.4833,"ARG_OF_PERICENTER":271.633,"MEAN_ANOMALY":84.5745,"EPHEMERIS_TYPE":0,"CLASSIFICATION_TYPE":"U","NORAD_CAT_ID":25509,"ELEMENT_SET_NO":999,"REV_AT_EPOCH":43145,"BSTAR":6.9265016e-5,"MEAN_MOTION_DOT":4.4e-6,"MEAN_MOTION_DDOT":0}]
